{"spkid": "50070824", "covariance": {"labels": ["e", "q", "tp", "node", "peri", "i", "A2"], "data": [["4.179246850113227E-15", "-3.975647098354375E-15", "-3.533892487385584E-13", "-6.761698384332949E-13", "7.557149301944712E-13", "3.189230893332231E-14", "1.605417850363474E-22"], ["-3.975647098354375E-15", "3.785189478429991E-15", "3.373257953190946E-13", "7.094008689093498E-13", "-7.848516025810272E-13", "-3.134950417007451E-14", "-1.378234028986594E-22"], ["-3.533892487385584E-13", "3.373257953190946E-13", "1.614611060301684E-10", "2.403060155729837E-11", "8.626140184977207E-11", "-9.652582002216577E-12", "-8.210514078352574E-21"], ["-6.761698384332949E-13", "7.094008689093498E-13", "2.403060155729837E-11", "6.733852468025584E-9", "-6.755415879873405E-9", "1.600679899586718E-11", "3.132417500089602E-19"], ["7.557149301944712E-13", "-7.848516025810272E-13", "8.626140184977207E-11", "-6.755415879873405E-9", "6.886752890516544E-9", "-2.207385979420945E-11", "-3.07826088935954E-19"], ["3.189230893332231E-14", "-3.134950417007451E-14", "-9.652582002216577E-12", "1.600679899586718E-11", "-2.207385979420945E-11", "5.019186273680824E-12", "-3.172564358188782E-21"], ["1.605417850363474E-22", "-1.378234028986594E-22", "-8.210514078352574E-21", "3.132417500089602E-19", "-3.07826088935954E-19", "-3.172564358188782E-21", "7.884377320319435E-29"]], "elements": [{"label": "e", "name": "e", "sigma": 6.46470946765067e-08, "units": null, "title": "eccentricity", "value": ".1762592035182157"}, {"label": "q", "value": ".7744427057582701", "title": "perihelion distance", "units": "au", "sigma": 6.15238935571375e-08, "name": "q"}, {"sigma": 1.27067346722188e-05, "name": "tp", "title": "time of perihelion passage", "value": "2455843.072058473401", "units": "TDB", "label": "tp"}, {"name": "om", "sigma": 8.2060054033772e-05, "units": "deg", "title": "longitude of the ascending node", "value": "31.87551326238509", "label": "node"}, {"title": "argument of perihelion", "value": "342.6224677220995", "units": "deg", "name": "w", "sigma": 8.29864620918168e-05, "label": "peri"}, {"label": "i", "sigma": 2.24035405096624e-06, "name": "i", "title": "inclination", "value": "1.291811526706732", "units": "deg"}], "epoch": "2455839.5"}, "elements": [{"label": "e", "name": "e", "sigma": "6.5052E-8", "title": "eccentricity", "value": ".1772347039727997", "units": null}, {"label": "a", "value": ".937411632090983", "title": "semi-major axis", "units": "au", "sigma": "2.4837E-9", "name": "a"}, {"label": "q", "name": "q", "sigma": "6.0372E-8", "value": ".7712697589766786", "title": "perihelion distance", "units": "au"}, {"value": "1.255032271736787", "title": "inclination; angle with respect to x-y ecliptic plane", "units": "deg", "name": "i", "sigma": "2.2194E-6", "label": "i"}, {"label": "node", "units": "deg", "value": "30.53717701670867", "title": "longitude of the ascending node", "sigma": "8.5399E-5", "name": "om"}, {"name": "w", "sigma": "8.5798E-5", "title": "argument of perihelion", "value": "344.8851865310373", "units": "deg", "label": "peri"}, {"label": "M", "name": "ma", "sigma": "1.9772E-5", "title": "mean anomaly", "value": "52.34084812860015", "units": "deg"}, {"label": "tp", "value": "2461152.301647992627", "title": "time of perihelion passage", "units": "TDB", "name": "tp", "sigma": "1.8118E-5"}, {"label": "period", "units": "d", "title": "sidereal orbital period", "value": "331.5079396501623", "sigma": "1.3175E-6", "name": "per"}, {"label": "n", "units": "deg/d", "title": "mean motion", "value": "1.085946841514279", "sigma": "4.3159E-9", "name": "n"}, {"title": "aphelion distance", "value": "1.103553505205287", "units": "au", "sigma": "2.9239E-9", "name": "ad", "label": "Q"}], "epoch": "2461200.5"}